[{"OBJECT_NAME":"OBJECT D","OBJECT_ID":"2023-072D","EPOCH":"2026-03-09T22:22:02.837856","MEAN_MOTION":15.56411819,"ECCENTRICITY":0.00020241,"INCLINATION":97.5083,"RA_OF_ASC_NODE":279.2529,"ARG_OF_PERICENTER":343.457,"MEAN_ANOMALY":16.6618,"EPHEMERIS_TYPE":0,"CLASSIFICATION_TYPE":"U","NORAD_CAT_ID":56746,"ELEMENT_SET_NO":999,"REV_AT_EPOCH":15536,"BSTAR":0.00095552133,"MEAN_MOTION_DOT":0.00067835,"MEAN_MOTION_DDOT":0},{"OBJECT_NAME":"ELECTRON KICK STAGE R\/B","OBJECT_ID":"2022-113C","EPOCH":"2026-03-09T17:52:10.444512","MEAN_MOTION":15.55580048,"ECCENTRICITY":0.00047816,"INCLINATION":97.4909,"RA_OF_ASC_NODE":143.5752,"ARG_OF_PERICENTER":190.5776,"MEAN_ANOMALY":169.5378,"EPHEMERIS_TYPE":0,"CLASSIFICATION_TYPE":"U","NORAD_CAT_ID":53817,"ELEMENT_SET_NO":999,"REV_AT_EPOCH":19274,"BSTAR":0.0010825537,"MEAN_MOTION_DOT":0.0007464,"MEAN_MOTION_DDOT":0}]
